{"type": "FeatureCollection", "features": [ {"type": "Feature", "properties": {"norad_id": 66870, "name": "STARLINK-36114", "group": "last-30-days", "lat": -39.84854426930014, "lon": -29.244640655157944, "alt_km": 417.58905456707544, "timestamp": "2025-12-27T07:26:23.946802+00:00", "meta": {"OBJECT_NAME": "STARLINK-36114", "OBJECT_ID": "2025-281Y", "EPOCH": "2025-12-26T22:00:01.999584", "MEAN_MOTION": 15.50535159, "ECCENTRICITY": 0.00011842, "INCLINATION": 43.0004, "RA_OF_ASC_NODE": 36.6462, "ARG_OF_PERICENTER": 243.2743, "MEAN_ANOMALY": 8.6009, "EPHEMERIS_TYPE": 0, "CLASSIFICATION_TYPE": "U", "NORAD_CAT_ID": 66870, "ELEMENT_SET_NO": 999, "REV_AT_EPOCH": 356, "BSTAR": 0.0017786764, "MEAN_MOTION_DOT": 0.00105253, "MEAN_MOTION_DDOT": 0}, "tle": {"line1": "1 66870U 25281Y   25360.91668981  .00105253  00000+0  17787-2 0  9996", "line2": "2 66870  43.0004  36.6462 0001184 243.2743   8.6009 15.50535159  3562"}}, "geometry": {"type": "Point", "coordinates": [-29.244640655157944, -39.84854426930014]}}, {"type": "Feature", "properties": {"norad_id": 66871, "name": "STARLINK-36095", "group": "last-30-days", "lat": -39.24431317522502, "lon": -26.89460070622348, "alt_km": 417.69683678683305, "timestamp": "2025-12-27T07:26:23.946814+00:00", "meta": {"OBJECT_NAME": "STARLINK-36095", "OBJECT_ID": "2025-281Z", "EPOCH": "2025-12-26T22:00:01.999584", "MEAN_MOTION": 15.50531616, "ECCENTRICITY": 0.00010038, "INCLINATION": 43.0005, "RA_OF_ASC_NODE": 36.6409, "ARG_OF_PERICENTER": 241.3454, "MEAN_ANOMALY": 12.4537, "EPHEMERIS_TYPE": 0, "CLASSIFICATION_TYPE": "U", "NORAD_CAT_ID": 66871, "ELEMENT_SET_NO": 999, "REV_AT_EPOCH": 369, "BSTAR": 0.0017455222, "MEAN_MOTION_DOT": 0.00103245, "MEAN_MOTION_DDOT": 0}, "tle": {"line1": "1 66871U 25281Z   25360.91668981  .00103245  00000+0  17455-2 0  9998", "line2": "2 66871  43.0005  36.6409 0001003 241.3454  12.4537 15.50531616  3690"}}, "geometry": {"type": "Point", "coordinates": [-26.89460070622348, -39.24431317522502]}}, {"type": "Feature", "properties": {"norad_id": 66872, "name": "STARLINK-36082", "group": "last-30-days", "lat": -38.593704861123406, "lon": -24.586866691610243, "alt_km": 417.490905863393, "timestamp": "2025-12-27T07:26:23.946825+00:00", "meta": {"OBJECT_NAME": "STARLINK-36082", "OBJECT_ID": "2025-281AA", "EPOCH": "2025-12-26T22:00:01.999584", "MEAN_MOTION": 15.5053445, "ECCENTRICITY": 0.0001289, "INCLINATION": 43.0005, "RA_OF_ASC_NODE": 36.6362, "ARG_OF_PERICENTER": 247.2615, "MEAN_ANOMALY": 8.4491, "EPHEMERIS_TYPE": 0, "CLASSIFICATION_TYPE": "U", "NORAD_CAT_ID": 66872, "ELEMENT_SET_NO": 999, "REV_AT_EPOCH": 356, "BSTAR": 0.0017042118, "MEAN_MOTION_DOT": 0.00100772, "MEAN_MOTION_DDOT": 0}, "tle": {"line1": "1 66872U 25281AA  25360.91668981  .00100772  00000+0  17042-2 0  9993", "line2": "2 66872  43.0005  36.6362 0001289 247.2615   8.4491 15.50534450  3568"}}, "geometry": {"type": "Point", "coordinates": [-24.586866691610243, -38.593704861123406]}}, {"type": "Feature", "properties": {"norad_id": 66873, "name": "STARLINK-36128", "group": "last-30-days", "lat": -36.37802244657916, "lon": -17.915532923058862, "alt_km": 417.54534936053733, "timestamp": "2025-12-27T07:26:23.946835+00:00", "meta": {"OBJECT_NAME": "STARLINK-36128", "OBJECT_ID": "2025-281AB", "EPOCH": "2025-12-26T22:00:01.999584", "MEAN_MOTION": 15.50536574, "ECCENTRICITY": 0.00012253, "INCLINATION": 43.0005, "RA_OF_ASC_NODE": 36.6211, "ARG_OF_PERICENTER": 240.1024, "MEAN_ANOMALY": 21.3588, "EPHEMERIS_TYPE": 0, "CLASSIFICATION_TYPE": "U", "NORAD_CAT_ID": 66873, "ELEMENT_SET_NO": 999, "REV_AT_EPOCH": 369, "BSTAR": 0.0017312994, "MEAN_MOTION_DOT": 0.00102408, "MEAN_MOTION_DDOT": 0}, "tle": {"line1": "1 66873U 25281AB  25360.91668981  .00102408  00000+0  17313-2 0  9993", "line2": "2 66873  43.0005  36.6211 0001225 240.1024  21.3588 15.50536574  3692"}}, "geometry": {"type": "Point", "coordinates": [-17.915532923058862, -36.37802244657916]}}, {"type": "Feature", "properties": {"norad_id": 66874, "name": "STARLINK-36129", "group": "last-30-days", "lat": -37.89211798338199, "lon": -22.302045867418382, "alt_km": 417.56414253430285, "timestamp": "2025-12-27T07:26:23.946845+00:00", "meta": {"OBJECT_NAME": "STARLINK-36129", "OBJECT_ID": "2025-281AC", "EPOCH": "2025-12-26T22:00:01.999584", "MEAN_MOTION": 15.50577562, "ECCENTRICITY": 0.00011895, "INCLINATION": 43.0006, "RA_OF_ASC_NODE": 36.6315, "ARG_OF_PERICENTER": 243.701, "MEAN_ANOMALY": 13.9132, "EPHEMERIS_TYPE": 0, "CLASSIFICATION_TYPE": "U", "NORAD_CAT_ID": 66874, "ELEMENT_SET_NO": 999, "REV_AT_EPOCH": 369, "BSTAR": 0.00072441856, "MEAN_MOTION_DOT": 0.00042384, "MEAN_MOTION_DDOT": 0}, "tle": {"line1": "1 66874U 25281AC  25360.91668981  .00042384  00000+0  72442-3 0  9995", "line2": "2 66874  43.0006  36.6315 0001189 243.7010  13.9132 15.50577562  3696"}}, "geometry": {"type": "Point", "coordinates": [-22.302045867418382, -37.89211798338199]}}, {"type": "Feature", "properties": {"norad_id": 66875, "name": "STARLINK-36053", "group": "last-30-days", "lat": -35.56353039315451, "lon": -15.792749235674991, "alt_km": 417.51435919078904, "timestamp": "2025-12-27T07:26:23.946855+00:00", "meta": {"OBJECT_NAME": "STARLINK-36053", "OBJECT_ID": "2025-281AD", "EPOCH": "2025-12-26T22:00:01.999584", "MEAN_MOTION": 15.5053329, "ECCENTRICITY": 0.00012144, "INCLINATION": 43.0004, "RA_OF_ASC_NODE": 36.6156, "ARG_OF_PERICENTER": 241.8927, "MEAN_ANOMALY": 21.4801, "EPHEMERIS_TYPE": 0, "CLASSIFICATION_TYPE": "U", "NORAD_CAT_ID": 66875, "ELEMENT_SET_NO": 999, "REV_AT_EPOCH": 369, "BSTAR": 0.0017607896, "MEAN_MOTION_DOT": 0.0010417, "MEAN_MOTION_DDOT": 0}, "tle": {"line1": "1 66875U 25281AD  25360.91668981  .00104170  00000+0  17608-2 0  9990", "line2": "2 66875  43.0004  36.6156 0001214 241.8927  21.4801 15.50533290  3690"}}, "geometry": {"type": "Point", "coordinates": [-15.792749235674991, -35.56353039315451]}}, {"type": "Feature", "properties": {"norad_id": 66876, "name": "STARLINK-35702", "group": "last-30-days", "lat": -37.158585823648735, "lon": -20.096508736397755, "alt_km": 417.5191981489379, "timestamp": "2025-12-27T07:26:23.946867+00:00", "meta": {"OBJECT_NAME": "STARLINK-35702", "OBJECT_ID": "2025-281AE", "EPOCH": "2025-12-26T22:00:01.999584", "MEAN_MOTION": 15.50536569, "ECCENTRICITY": 0.00011492, "INCLINATION": 43.0004, "RA_OF_ASC_NODE": 36.6263, "ARG_OF_PERICENTER": 246.3545, "MEAN_ANOMALY": 13.1869, "EPHEMERIS_TYPE": 0, "CLASSIFICATION_TYPE": "U", "NORAD_CAT_ID": 66876, "ELEMENT_SET_NO": 999, "REV_AT_EPOCH": 369, "BSTAR": 0.0017841849, "MEAN_MOTION_DOT": 0.0010559, "MEAN_MOTION_DDOT": 0}, "tle": {"line1": "1 66876U 25281AE  25360.91668981  .00105590  00000+0  17842-2 0  9998", "line2": "2 66876  43.0004  36.6263 0001149 246.3545  13.1869 15.50536569  3697"}}, "geometry": {"type": "Point", "coordinates": [-20.096508736397755, -37.158585823648735]}}, {"type": "Feature", "properties": {"norad_id": 66877, "name": "ZQ-3 R/B", "group": "last-30-days", "lat": -55.00052846850905, "lon": -67.78688409662843, "alt_km": 227.1092138442591, "timestamp": "2025-12-27T07:26:23.946878+00:00", "meta": {"OBJECT_NAME": "ZQ-3 R/B", "OBJECT_ID": "2025-282A", "EPOCH": "2025-12-26T17:16:15.910176", "MEAN_MOTION": 14.88008524, "ECCENTRICITY": 0.06613306, "INCLINATION": 56.9484, "RA_OF_ASC_NODE": 2.9971, "ARG_OF_PERICENTER": 244.7229, "MEAN_ANOMALY": 108.3888, "EPHEMERIS_TYPE": 0, "CLASSIFICATION_TYPE": "U", "NORAD_CAT_ID": 66877, "ELEMENT_SET_NO": 999, "REV_AT_EPOCH": 345, "BSTAR": 0.00016026682, "MEAN_MOTION_DOT": 0.00975006, "MEAN_MOTION_DDOT": 7.991729e-06}, "tle": {"line1": "1 66877U 25282A   25360.71962859  .00975006  79917-5  16027-3 0  9990", "line2": "2 66877  56.9484   2.9971 0661330 244.7229 108.3888 14.88008524  3457"}}, "geometry": {"type": "Point", "coordinates": [-67.78688409662843, -55.00052846850905]}}, {"type": "Feature", "properties": {"norad_id": 66878, "name": "STARLINK-35866", "group": "last-30-days", "lat": 49.95807907085592, "lon": 118.34556146337137, "alt_km": 401.13806940051745, "timestamp": "2025-12-27T07:26:23.946891+00:00", "meta": {"OBJECT_NAME": "STARLINK-35866", "OBJECT_ID": "2025-283A", "EPOCH": "2025-12-26T22:00:01.999584", "MEAN_MOTION": 15.54470234, "ECCENTRICITY": 0.00010439, "INCLINATION": 53.1594, "RA_OF_ASC_NODE": 3.387, "ARG_OF_PERICENTER": 83.7598, "MEAN_ANOMALY": 342.064, "EPHEMERIS_TYPE": 0, "CLASSIFICATION_TYPE": "U", "NORAD_CAT_ID": 66878, "ELEMENT_SET_NO": 999, "REV_AT_EPOCH": 470, "BSTAR": -0.033264683, "MEAN_MOTION_DOT": -0.01993043, "MEAN_MOTION_DDOT": 0}, "tle": {"line1": "1 66878U 25283A   25360.91668981 -.01993043  00000+0 -33265-1 0  9999", "line2": "2 66878  53.1594   3.3870 0001043  83.7598 342.0640 15.54470234  4708"}}, "geometry": {"type": "Point", "coordinates": [118.34556146337137, 49.95807907085592]}}, {"type": "Feature", "properties": {"norad_id": 66879, "name": "STARLINK-35749", "group": "last-30-days", "lat": 48.44202024982049, "lon": 123.73861155140395, "alt_km": 401.28568752591127, "timestamp": "2025-12-27T07:26:23.946902+00:00", "meta": {"OBJECT_NAME": "STARLINK-35749", "OBJECT_ID": "2025-283B", "EPOCH": "2025-12-26T22:00:01.999584", "MEAN_MOTION": 15.54466745, "ECCENTRICITY": 0.00011809, "INCLINATION": 53.1596, "RA_OF_ASC_NODE": 3.3782, "ARG_OF_PERICENTER": 82.5796, "MEAN_ANOMALY": 347.0779, "EPHEMERIS_TYPE": 0, "CLASSIFICATION_TYPE": "U", "NORAD_CAT_ID": 66879, "ELEMENT_SET_NO": 999, "REV_AT_EPOCH": 470, "BSTAR": -0.033158013, "MEAN_MOTION_DOT": -0.01987165, "MEAN_MOTION_DDOT": 0}, "tle": {"line1": "1 66879U 25283B   25360.91668981 -.01987165  00000+0 -33158-1 0  9999", "line2": "2 66879  53.1596   3.3782 0001180  82.5796 347.0779 15.54466745  4702"}}, "geometry": {"type": "Point", "coordinates": [123.73861155140395, 48.44202024982049]}}]}